DICA,WASHINGTON REIS,abstencoes,aptos,bairro,cep,endereco,lat,location,lon,nao_considerados,nome_local,nome_munic,num_local,secoes,votos_anulados,votos_brancos,votos_legenda,votos_nominais,votos_nulos,zona
931,906,791,3143,JARDIM PRIMAVERA,25215250,AV. JORNALISTA MOACYR PADILHA S/N,-22.68571,"AV. JORNALISTA MOACYR PADILHA S/N, JARDIM PRIMAVERA, DUQUE DE CAXIAS, Rio de Janeiro",-43.27158,1306,ESCOLA ESTADUAL MINAS GERAIS,DUQUE DE CAXIAS,1139,8,0,109,0,1837,406,126
508,589,450,1782,GRAMACHO,25035250,AV. DARCY VARGAS 21,-22.7593473,"AV. DARCY VARGAS 21, GRAMACHO, DUQUE DE CAXIAS, Rio de Janeiro",-43.3038361,685,ESCOLA MUNICIPAL CORA CORALINA (ANTIGA THIAGO APOSTOLO),DUQUE DE CAXIAS,1120,6,0,50,0,1097,185,194
1058,1868,1151,4673,IMBARIÊ,25000000,"RUA GOINDIRA, 379",-22.6384356,"RUA GOINDIRA, 379, IMBARIÊ, DUQUE DE CAXIAS, Rio de Janeiro",-43.2181297,1747,COLÉGIO ESTADUAL FERNANDO FIGUEIREDO,DUQUE DE CAXIAS,1031,13,0,180,0,2926,416,127
1348,1110,1198,4178,JARDIM 25 DE AGOSTO,25071202,"RUA PROF. JOSÉ DE SOUZA HERDY, 1160",-22.7931337,"RUA PROF. JOSÉ DE SOUZA HERDY, 1160, JARDIM 25 DE AGOSTO, DUQUE DE CAXIAS, Rio de Janeiro",-43.2987189,1720,UNIGRANRIO,DUQUE DE CAXIAS,1015,11,0,103,0,2458,419,66
346,935,280,1755,VILA BONANÇA,25000000,RUA JOAO SANTOS SOBRINHO 16,-22.7463902,"RUA JOAO SANTOS SOBRINHO 16, VILA BONANÇA, DUQUE DE CAXIAS, Rio de Janeiro",-43.3082382,474,ESCOLA MUNICIPAL BRASILIA,DUQUE DE CAXIAS,1163,5,0,48,0,1281,146,128
696,442,483,1831,JARDIM 25 DE AGOSTO,25075015,"RUA MAJOR CORRÊA DE MELO, 86",-22.7959806,"RUA MAJOR CORRÊA DE MELO, 86, JARDIM 25 DE AGOSTO, DUQUE DE CAXIAS, Rio de Janeiro",-43.3010355,693,ESTÁCIO,DUQUE DE CAXIAS,1090,5,0,51,0,1138,159,66
917,1222,880,3377,CIDADE DOS MENINOS,25233000,AV. PRESIDENTE KENNEDY KM 12,-22.66817,"AV. PRESIDENTE KENNEDY KM 12, CIDADE DOS MENINOS, DUQUE DE CAXIAS, Rio de Janeiro",-43.3287,1238,ESCOLA ESTADUAL ASSIS CHATEAUBRIAND,DUQUE DE CAXIAS,1074,9,0,88,0,2139,270,79
626,1677,747,3542,SANTA CRUZ DA SERRA,25255070,RUA ALAGOAS S/N,-22.6429,"RUA ALAGOAS S/N, SANTA CRUZ DA SERRA, DUQUE DE CAXIAS, Rio de Janeiro",-43.28141,1239,ESCOLA MUNICIPAL ROTARY,DUQUE DE CAXIAS,1040,9,0,116,0,2303,376,128
1046,1170,800,3547,SANTA LÚCIA,25271080,"RUA URUBÁ, 30",-22.6308657,"RUA URUBÁ, 30, SANTA LÚCIA, DUQUE DE CAXIAS, Rio de Janeiro",-43.2113055,1331,ESCOLA ESTADUAL OPERÁRIO JOÃO VICENTE,DUQUE DE CAXIAS,1368,10,0,157,0,2216,374,127
840,1164,784,3134,JARDIM GRAMACHO,25056070,RUA FREI CANECA 98,-22.7668672,"RUA FREI CANECA 98, JARDIM GRAMACHO, DUQUE DE CAXIAS, Rio de Janeiro",-43.2853972,1130,COLÉGIO ESTADUAL ÁLVARO NEGROMONTE,DUQUE DE CAXIAS,1139,8,0,98,0,2004,248,78
931,1385,637,3449,CAMPOS ELÍSEOS,25225636,RUA DO ROSARIO 119,-22.7005639,"RUA DO ROSARIO 119, CAMPOS ELÍSEOS, DUQUE DE CAXIAS, Rio de Janeiro",-43.2758061,1133,INSTITUTO CULTURAL FLAVIO CASIMIRO,DUQUE DE CAXIAS,1660,9,0,124,0,2316,372,126
804,718,435,2296,JARDIM OLAVO BILAC,25036460,"PRAÇA OTÁVIO CARNEIRO, LOTE 14, QUADRA 12",-22.7632,"PRAÇA OTÁVIO CARNEIRO, LOTE 14, QUADRA 12, JARDIM OLAVO BILAC, DUQUE DE CAXIAS, Rio de Janeiro",-43.32092,774,ASSOCIAÇÃO EDUCACIONAL COLÉGIO OLAVO BILAC,DUQUE DE CAXIAS,1155,6,0,91,0,1522,248,194
717,282,283,1403,PRAINHA,25015655,"RUA ROCHA PITA, S/N",-22.79819,"RUA ROCHA PITA, S/N, PRAINHA, DUQUE DE CAXIAS, Rio de Janeiro",-43.32535,404,ESCOLA MUNICIPAL PRAINHA (PROFº. JAIR ALVES DE FREITAS),DUQUE DE CAXIAS,1511,5,0,33,0,999,88,103
1379,1212,891,3971,SÃO BENTO,25045030,AVENIDA PRESIDENTE KENNEDY S/N,-22.72083,"AVENIDA PRESIDENTE KENNEDY S/N, SÃO BENTO, DUQUE DE CAXIAS, Rio de Janeiro",-43.31997,1380,ESCOLA MUNICIPAL NISIA VILELA FERNANDES,DUQUE DE CAXIAS,2208,11,0,122,0,2591,367,79
4269,2802,2982,11361,SÃO BENTO,25045000,AV. PRESIDENTE KENNEDY S/N,-22.72083,"AV. PRESIDENTE KENNEDY S/N, SÃO BENTO, DUQUE DE CAXIAS, Rio de Janeiro",-43.31997,4290,CIEP 201 AARAO STEINBRUCH,DUQUE DE CAXIAS,1910,32,0,353,0,7071,955,79
747,533,483,1961,25 DE AGOSTO,25071181,"AV. BRIGADEIRO LIMA E SILVA, 764",-22.7958407,"AV. BRIGADEIRO LIMA E SILVA, 764, 25 DE AGOSTO, DUQUE DE CAXIAS, Rio de Janeiro",-43.2952886,681,SENAC,DUQUE DE CAXIAS,1120,7,0,48,0,1280,150,200
518,1565,714,3180,VILA EMA,25268000,"RUA M, SN",-22.64386,"RUA M, SN, VILA EMA, DUQUE DE CAXIAS, Rio de Janeiro",-43.23604,1097,ESCOLA ESTADUAL FRANCISCO PORTUGAL NEVES,DUQUE DE CAXIAS,1040,9,0,106,0,2083,277,127
732,1887,1037,3932,PARQUE DAS MISSÕES,25085009,ROD. WASHINGTON LUIZ KM 0,-22.78872,"ROD. WASHINGTON LUIZ KM 0, PARQUE DAS MISSÕES, DUQUE DE CAXIAS, Rio de Janeiro",-43.28537,1313,CIEP 350 TÚLIO ROBERTO CARDOSO QUINTINIANO,DUQUE DE CAXIAS,1163,11,0,97,0,2619,179,200
963,683,893,2856,CENTRO,25010230,"RUA JORGE VIEIRA DE MEDEIROS,101 - ANTIGA RUA 25 DE AGOSTO",-22.6000115,"RUA JORGE VIEIRA DE MEDEIROS,101 - ANTIGA RUA 25 DE AGOSTO, CENTRO, DUQUE DE CAXIAS, Rio de Janeiro",-43.3018652,1210,COLEGIO SÃO FRANCISCO,DUQUE DE CAXIAS,1112,9,0,59,0,1646,258,103
1581,1309,1040,4688,JARDIM PRIMAVERA,25212310,RUA LEIBRITZ S/N,-22.684,"RUA LEIBRITZ S/N, JARDIM PRIMAVERA, DUQUE DE CAXIAS, Rio de Janeiro",-43.26025,1798,CIEP 035 MARECHAL HENRIQUE TEIXEIRA LOTT,DUQUE DE CAXIAS,1082,12,0,152,0,2890,606,126
958,1015,769,3064,COPACABANA,25060200,RUA PRESIDENTE JUSCELINO KUBISTCHEK DE OLIVEIRA 3374,-22.76582,"RUA PRESIDENTE JUSCELINO KUBISTCHEK DE OLIVEIRA 3374, COPACABANA, DUQUE DE CAXIAS, Rio de Janeiro",-43.29963,1091,ESCOLA MUNICIPAL GENERAL SAMPAIO,DUQUE DE CAXIAS,1015,8,0,72,0,1973,250,78
765,511,542,1977,JARDIM GUANABARA,25086030,ESTRADA SAO VICENTE 851,-22.65765,"ESTRADA SAO VICENTE 851, JARDIM GUANABARA, DUQUE DE CAXIAS, Rio de Janeiro",-43.28279,701,ESCOLA ESTADUAL MIGUEL COUTO,DUQUE DE CAXIAS,1040,6,0,40,0,1276,119,200
852,1005,616,2980,SARACURUNA,25212440,AV. URUGUAIANA S/N,-22.67478,"AV. URUGUAIANA S/N, SARACURUNA, DUQUE DE CAXIAS, Rio de Janeiro",-43.24996,1123,ESCOLA MUNICIPAL JAYME FICHMAN,DUQUE DE CAXIAS,1449,8,0,116,0,1857,391,126
227,695,286,1411,CAPIVARI,25243574,RUA MANZANARES S/N,-22.64157,"RUA MANZANARES S/N, CAPIVARI, DUQUE DE CAXIAS, Rio de Janeiro",-43.33765,489,ESCOLA ESTADUAL ABDALA CHAMA,DUQUE DE CAXIAS,1490,4,0,55,0,922,148,126
1402,833,1249,3858,PARQUE LAFAIETE,25010540,RUA MARIA LUIZA REIS S/N,-22.79011,"RUA MARIA LUIZA REIS S/N, PARQUE LAFAIETE, DUQUE DE CAXIAS, Rio de Janeiro",-43.31903,1623,ESCOLA ESTADUAL DUQUE DE CAXIAS,DUQUE DE CAXIAS,1422,15,0,71,0,2235,303,103
1682,1140,901,4413,PARQUE MUISA,25044050,RUA D  1,-22.639871,"RUA D  1, PARQUE MUISA, DUQUE DE CAXIAS, Rio de Janeiro",-43.2558728,1591,ESCOLA ESTADUAL SANTO INACIO,DUQUE DE CAXIAS,1732,12,0,184,0,2822,506,79
852,1094,859,3106,CENTENÁRIO,25030040,RUA OTÁVIO ASCOLI S/N,-22.77375,"RUA OTÁVIO ASCOLI S/N, CENTENÁRIO, DUQUE DE CAXIAS, Rio de Janeiro",-43.31255,1160,ESCOLA ESTADUAL IRINEU MARINHO,DUQUE DE CAXIAS,1058,8,0,84,0,1946,217,77
812,720,635,2477,PERIQUITOS,25010000,"AV. HENRIQUE VALADARES, 16",-22.778909,"AV. HENRIQUE VALADARES, 16, PERIQUITOS, DUQUE DE CAXIAS, Rio de Janeiro",-43.3234104,945,ESCOLA MUNICIPAL PROFESSORA MARIA JOSÉ DE OLIVEIRA,DUQUE DE CAXIAS,1260,9,0,77,0,1532,233,77
1417,735,1061,3498,ENGENHO DO PORTO,25015190,RUA COMANDANTE ARI PARREIRAS S/N,-22.79327,"RUA COMANDANTE ARI PARREIRAS S/N, ENGENHO DO PORTO, DUQUE DE CAXIAS, Rio de Janeiro",-43.3213,1346,CIEP ANTONIETA CAMPOS DA PAZ (CIEP 434-MARIA JOSE MACHADO),DUQUE DE CAXIAS,1368,14,0,55,0,2152,230,103
473,1775,774,3298,CAPIVARI,25243150,PRACA SAO LOURENCO 112,-22.6521766,"PRACA SAO LOURENCO 112, CAPIVARI, DUQUE DE CAXIAS, Rio de Janeiro",-43.3186229,1050,ESCOLA MUNICIPAL PRESIDENTE COSTA E SILVA,DUQUE DE CAXIAS,1406,9,0,73,0,2248,203,126
657,1104,604,2670,VILA CANAAN,25255160,RUA BONSUCESSO S/N,-22.62591,"RUA BONSUCESSO S/N, VILA CANAAN, DUQUE DE CAXIAS, Rio de Janeiro",-43.28628,909,ESCOLA ESTADUAL ALEMY TAVARES DA SILVA,DUQUE DE CAXIAS,1139,7,0,66,0,1761,239,128
1337,921,1210,3834,CENTRO,25010000,AV. PRESIDENTE KENNEDY 514,-22.7950127,"AV. PRESIDENTE KENNEDY 514, CENTRO, DUQUE DE CAXIAS, Rio de Janeiro",-43.3052769,1576,COLEGIO FUTURO VIP (ANTIGO CURSO GPI),DUQUE DE CAXIAS,1058,11,0,99,0,2258,267,103
795,948,660,2743,DOUTOR LAUREANO,25050580,AV. CHOPIN 25,-22.7601156,"AV. CHOPIN 25, DOUTOR LAUREANO, DUQUE DE CAXIAS, Rio de Janeiro",-43.2962677,1000,ESCOLA ESTADUAL HERBERT MOSES,DUQUE DE CAXIAS,1082,7,0,83,0,1743,257,78
1443,1809,1276,5315,SARACURUNA,25220660,RUA DO PORTO S/N,-22.68005,"RUA DO PORTO S/N, SARACURUNA, DUQUE DE CAXIAS, Rio de Janeiro",-43.24281,2063,CIEP 228 DARCY VARGAS,DUQUE DE CAXIAS,1554,14,0,182,0,3252,605,126
1548,2435,1913,6788,NOVA CAMPINAS,25211220,"AV. A, S/N",-22.75381,"AV. A, S/N, NOVA CAMPINAS, DUQUE DE CAXIAS, Rio de Janeiro",-43.28259,2805,CIEP 227 - PROCÓPIO FERREIRA,DUQUE DE CAXIAS,1120,20,0,229,0,3983,663,127
1035,1182,1064,3744,PARADA ANGÉLICA,25272230,"RUA REAL DA ESTRELA, S/N",-22.62394,"RUA REAL DA ESTRELA, S/N, PARADA ANGÉLICA, DUQUE DE CAXIAS, Rio de Janeiro",-43.20364,1527,CIEP 407 - NEUZA GOULART BRIZOLA,DUQUE DE CAXIAS,1074,13,0,141,0,2217,322,127
255,230,314,903,CENTRO,25070005,"PRACA ROBERTO SILVEIRA, 24",-22.7822217,"PRACA ROBERTO SILVEIRA, 24, CENTRO, DUQUE DE CAXIAS, Rio de Janeiro",-43.2966834,418,CEF - CAIXA ECONÔMICA FEDERAL - AGÊNCIA 1334 - 25 DE AGOSTO,DUQUE DE CAXIAS,1112,3,0,25,0,485,79,66
1461,1443,1091,4632,JARDIM PRIMAVERA,25223540,PRACA NOSSA SENHORA DE LOURDES S/N,-22.68787,"PRACA NOSSA SENHORA DE LOURDES S/N, JARDIM PRIMAVERA, DUQUE DE CAXIAS, Rio de Janeiro",-43.26686,1728,CIEP 209 ATAULPHO ALVES,DUQUE DE CAXIAS,1120,12,0,177,0,2904,460,126
1520,1905,1235,5339,CIDADE DOS MENINOS,25233000,AV.PRESIDENTE KENNEDY KM 12,-22.66817,"AV.PRESIDENTE KENNEDY KM 12, CIDADE DOS MENINOS, DUQUE DE CAXIAS, Rio de Janeiro",-43.3287,1914,CIEP 032 - CORA CORALINA,DUQUE DE CAXIAS,1066,15,0,161,0,3425,518,79
822,1990,912,4449,PARQUE PAULISTA,25261000,"AV. 31 DE MARÇO, 88",-22.6591315,"AV. 31 DE MARÇO, 88, PARQUE PAULISTA, DUQUE DE CAXIAS, Rio de Janeiro",-43.2516867,1637,CIEP 015 - MUNICIPALIZADO HENRIQUE DE SOUZA FILHO - HENFIL,DUQUE DE CAXIAS,1279,12,0,190,0,2812,535,127
962,928,724,2946,COPACABANA,25060350,RUA ITU 1,-22.7552492,"RUA ITU 1, COPACABANA, DUQUE DE CAXIAS, Rio de Janeiro",-43.3009259,1056,ESCOLA ESTADUAL ARARIBÓIA,DUQUE DE CAXIAS,1031,8,0,68,0,1890,264,78
541,492,479,1705,CENTRO,25020150,"RUA JOSE DE ALVARENGA, 642",-22.790752,"RUA JOSE DE ALVARENGA, 642, CENTRO, DUQUE DE CAXIAS, Rio de Janeiro",-43.3115564,672,IPMDC-INSTITUTO DE PREVIDENCIA MUNICIPAL DE DUQUE DE CAXIAS,DUQUE DE CAXIAS,1171,8,0,38,0,1033,155,103
626,824,571,2395,NOVA CAMPINAS,25265000,"AV. A, S/N - QD 93",-22.78741,"AV. A, S/N - QD 93, NOVA CAMPINAS, DUQUE DE CAXIAS, Rio de Janeiro",-43.31298,945,CRECHE E PRÉ-ESCOLA MUNICIPAL PROFESSORA ARMANDA ÁLVARO ALBERTO,DUQUE DE CAXIAS,1309,7,0,95,0,1450,279,127
1518,1847,1327,5449,SARACURUNA,25212662,RUA CASTRO ALVES S/N,-22.71904,"RUA CASTRO ALVES S/N, SARACURUNA, DUQUE DE CAXIAS, Rio de Janeiro",-43.29302,2084,CIEP 229 CANDIDO PORTINARI,DUQUE DE CAXIAS,1724,14,0,183,0,3365,574,126
571,2179,742,3725,XERÉM,25250310,ESTRADA DA IGREJA VELHA-F.N.M. S/N,-22.60722,"ESTRADA DA IGREJA VELHA-F.N.M. S/N, XERÉM, DUQUE DE CAXIAS, Rio de Janeiro",-43.31516,975,ESCOLA ESTADUAL SANTO ANTONIO,DUQUE DE CAXIAS,1090,10,0,46,0,2750,187,128
1773,900,1117,4196,PARQUE LAGUNA E DOURADOS,25085420,"AV. DR. MANOEL TELLES, S/N",-22.7906,"AV. DR. MANOEL TELLES, S/N, PARQUE LAGUNA E DOURADOS, DUQUE DE CAXIAS, Rio de Janeiro",-43.31254,1523,CENTRO EDUCACIONAL COLEGIO CARLOS GOMES (QUADRA),DUQUE DE CAXIAS,1325,11,0,106,0,2673,300,103
775,975,686,2737,CENTENÁRIO,25030150,RUA CEL. ALBERTO DE MELO S/N,-22.77465,"RUA CEL. ALBERTO DE MELO S/N, CENTENÁRIO, DUQUE DE CAXIAS, Rio de Janeiro",-43.31607,987,ESCOLA MUNICIPAL HELENA AGUIAR DE MEDEIROS,DUQUE DE CAXIAS,1082,7,0,84,0,1750,217,77
795,1231,743,3083,JARDIM GRAMACHO,25055340,"RUA CARAMURU, 84",-22.7563798,"RUA CARAMURU, 84, JARDIM GRAMACHO, DUQUE DE CAXIAS, Rio de Janeiro",-43.278041,1057,ESCOLA MUNICIPAL MAURO DE CASTRO,DUQUE DE CAXIAS,1350,8,0,66,0,2026,248,78
456,342,508,1452,JARDIM 25 DE AGOSTO,25071181,"AV. BRIGADEIRO LIMA E SILVA, 2059 - AG.129",-22.7902794,"AV. BRIGADEIRO LIMA E SILVA, 2059 - AG.129, JARDIM 25 DE AGOSTO, DUQUE DE CAXIAS, Rio de Janeiro",-43.3067975,654,BRADESCO - AGÊNCIA 0129,DUQUE DE CAXIAS,1317,5,0,25,0,798,121,66
1438,626,718,3126,PARQUE LAFAIETE,25025020,AV. NILO PECANHA 2716,-22.7933236,"AV. NILO PECANHA 2716, PARQUE LAFAIETE, DUQUE DE CAXIAS, Rio de Janeiro",-43.3278894,1062,ESCOLA VENANCIO PEREIRA VELLOSO,DUQUE DE CAXIAS,1473,9,0,70,0,2064,274,103
1337,1218,951,4044,VILA SÃO LUIS,25065050,RUA GENERAL MANOEL RABELO S/N,-22.7769,"RUA GENERAL MANOEL RABELO S/N, VILA SÃO LUIS, DUQUE DE CAXIAS, Rio de Janeiro",-43.29655,1489,FACULDADE DE EDUCACAO DA BAIXADA FLUMINENSE - UERJ,DUQUE DE CAXIAS,1155,12,0,97,0,2555,441,200
460,548,394,1602,GRAMACHO,25035185,"RUA JOAQUIM JOSE SOARES, N 273",-22.7570907,"RUA JOAQUIM JOSE SOARES, N 273, GRAMACHO, DUQUE DE CAXIAS, Rio de Janeiro",-43.3053694,594,CENSA -  CENTRO EDUCACIONAL DE CAXIAS NOSSA SRA APARECIDA,DUQUE DE CAXIAS,1287,6,0,41,0,1008,159,194
843,2029,938,4478,VILA MARIA HELENA,25251600,RUA EUSTAQUIO DE AZEVEDO S/N,-22.66859,"RUA EUSTAQUIO DE AZEVEDO S/N, VILA MARIA HELENA, DUQUE DE CAXIAS, Rio de Janeiro",-43.27912,1606,CIEP 370 PROFESSOR SYLVIO GNECCO DE CARVALHO,DUQUE DE CAXIAS,1635,12,0,157,0,2872,511,126
889,2313,1190,5053,SANTA CRUZ DA SERRA,25251740,RODOVIA WASHINGTON LUIZ S/N,-22.64491,"RODOVIA WASHINGTON LUIZ S/N, SANTA CRUZ DA SERRA, DUQUE DE CAXIAS, Rio de Janeiro",-43.28358,1851,CIEP MONTEIRO LOBATO,DUQUE DE CAXIAS,1147,14,0,162,0,3202,499,128
1106,827,560,3058,JARDIM PRIMAVERA,25210000,RUA ODESSA 546,-22.6868436,"RUA ODESSA 546, JARDIM PRIMAVERA, DUQUE DE CAXIAS, Rio de Janeiro",-43.2681686,1125,COLEGIO ESTADUAL HELIO RANGEL,DUQUE DE CAXIAS,1368,8,0,152,0,1933,413,126
970,928,922,3272,JARDIM PRIMAVERA,25215340,"AV. PRIMAVERA, QD 20/22",-22.68787,"AV. PRIMAVERA, QD 20/22, JARDIM PRIMAVERA, DUQUE DE CAXIAS, Rio de Janeiro",-43.26686,1374,ESCOLA MUNICIPAL REGINA CELI DA SILVA CERDEIRA,DUQUE DE CAXIAS,1074,9,0,93,0,1898,359,126
663,1097,674,2836,IMBARIÊ,25275300,"RUA 14 DE JULHO, LT 13 QD 67",-22.63885,"RUA 14 DE JULHO, LT 13 QD 67, IMBARIÊ, DUQUE DE CAXIAS, Rio de Janeiro",-43.2245,1076,ESCOLA MUNICIPAL PAULO RODRIGUES PEREIRA,DUQUE DE CAXIAS,1180,8,0,105,0,1760,297,127
349,224,341,1012,VILA SÃO LUIS,25065030,"RUA DOUTOR CARLOS ESTEVES, 216",-22.7804303,"RUA DOUTOR CARLOS ESTEVES, 216, VILA SÃO LUIS, DUQUE DE CAXIAS, Rio de Janeiro",-43.294418,439,CENTRO EDUCACIONAL BERBERT BARROS,DUQUE DE CAXIAS,1392,4,0,14,0,573,84,200
726,1156,525,2780,PILAR,25233170,RUA COMENDADOR SILVA CARDOSO S/N,-22.70793,"RUA COMENDADOR SILVA CARDOSO S/N, PILAR, DUQUE DE CAXIAS, Rio de Janeiro",-43.30345,898,ESCOLA MUNICIPAL PROFESSORA AMÉLIA CÂMARA,DUQUE DE CAXIAS,2216,7,0,92,0,1882,281,79
1448,1424,1164,4621,VILA SÃO LUIS,25065050,"PRAÇA DA BANDEIRA, S/N",-22.63571,"PRAÇA DA BANDEIRA, S/N, VILA SÃO LUIS, DUQUE DE CAXIAS, Rio de Janeiro",-43.20961,1749,ESCOLA MUNICIPAL EXPEDICIONÁRIO AQUINO DE ARAÚJO,DUQUE DE CAXIAS,1198,14,0,102,0,2872,483,78
603,566,351,1807,VILA SÃO LUIS,25065030,RUA DEPUTADO SA REGO S/N  (ESQ. COM R. PAULO DE FRONTIN),-22.77107,"RUA DEPUTADO SA REGO S/N  (ESQ. COM R. PAULO DE FRONTIN), VILA SÃO LUIS, DUQUE DE CAXIAS, Rio de Janeiro",-43.28892,638,ESCOLA ESTADUAL EUCLIDES DA CUNHA,DUQUE DE CAXIAS,1171,5,0,67,0,1169,220,200
531,1434,592,2917,TAQUARA,25270000,"RUA GENERAL FRANCISCO DE LIMA E SILVA, S/N",-22.61629,"RUA GENERAL FRANCISCO DE LIMA E SILVA, S/N, TAQUARA, DUQUE DE CAXIAS, Rio de Janeiro",-43.23564,952,ESCOLA MUNICIPAL PROFESSORA MARIA DE ARAÚJO DA SILVA - BRIZOLINHA,DUQUE DE CAXIAS,1163,8,0,78,0,1965,282,127
995,430,536,2191,PARQUE LAFAIETE,25015100,RUA EXP. AQUINO DE ARAUJO S/N ESQ. RUA RISOLETA CAETANO,-22.79168,"RUA EXP. AQUINO DE ARAUJO S/N ESQ. RUA RISOLETA CAETANO, PARQUE LAFAIETE, DUQUE DE CAXIAS, Rio de Janeiro",-43.31993,766,ESCOLA MUNICIPAL TODOS OS SANTOS,DUQUE DE CAXIAS,1503,6,0,40,0,1425,190,103
501,506,481,1700,CENTRO,25020100,RUA BELISARIO PENA 273,-22.78476,"RUA BELISARIO PENA 273, CENTRO, DUQUE DE CAXIAS, Rio de Janeiro",-43.31091,693,ESCOLA MUNICIPAL ALVARO ALBERTO,DUQUE DE CAXIAS,1155,6,0,40,0,1007,172,103
723,820,649,2471,CENTENÁRIO,25030160,"R. JOÃO RIBEIRO, 73",-22.7801269,"R. JOÃO RIBEIRO, 73, CENTENÁRIO, DUQUE DE CAXIAS, Rio de Janeiro",-43.3160332,928,JARDIM ESCOLA LUZ E SABER,DUQUE DE CAXIAS,1376,7,0,71,0,1543,208,77
1321,1381,1037,4223,COPACABANA,25060445,AV PREFEITO BRAULINO DE MATOS REIS 1410,-22.7616299,"AV PREFEITO BRAULINO DE MATOS REIS 1410, COPACABANA, DUQUE DE CAXIAS, Rio de Janeiro",-43.2988299,1521,ESCOLA MUNICIPAL WILSON DE OLIVEIRA SIMÕES (LICEU),DUQUE DE CAXIAS,1040,13,0,113,0,2702,371,78
494,453,472,1627,JARDIM 25 DE AGOSTO,25075025,RUA MARECHAL FLORIANO 555,-22.7936846,"RUA MARECHAL FLORIANO 555, JARDIM 25 DE AGOSTO, DUQUE DE CAXIAS, Rio de Janeiro",-43.3003038,680,CEDERJ - CENTRO DE EDUCAÇÃO SUPERIOR À DISTÂNCIA (ANT COL SANTA LUZIA),DUQUE DE CAXIAS,1040,4,0,44,0,947,164,66
537,425,285,1483,JARDIM OLAVO BILAC,25036040,RUA CASSIPORE LOTE 27 QD 92,-22.7632,"RUA CASSIPORE LOTE 27 QD 92, JARDIM OLAVO BILAC, DUQUE DE CAXIAS, Rio de Janeiro",-43.32092,521,JARDIM ESCOLA REINO DA CULTURA - PREDIO I,DUQUE DE CAXIAS,1163,4,0,65,0,962,171,194
1422,1867,1097,5067,DOUTOR LAUREANO,25050580,AV. CHOPIN S/N,-22.7597,"AV. CHOPIN S/N, DOUTOR LAUREANO, DUQUE DE CAXIAS, Rio de Janeiro",-43.29222,1778,CIEP CHARLES CHAPLIN,DUQUE DE CAXIAS,1295,13,0,160,0,3289,521,78
733,1124,754,3099,NOVA CAMPINAS,25260000,"AVENIDA A, S/N",-22.75381,"AVENIDA A, S/N, NOVA CAMPINAS, DUQUE DE CAXIAS, Rio de Janeiro",-43.28259,1242,ESCOLA ESTADUAL NOVA CAMPINAS,DUQUE DE CAXIAS,1376,10,0,134,0,1857,354,127
615,461,555,1863,25 DE AGOSTO,25071181,"AVENIDA BRIGADEIRO LIMA E SILVA, 1411",-22.7926037,"AVENIDA BRIGADEIRO LIMA E SILVA, 1411, 25 DE AGOSTO, DUQUE DE CAXIAS, Rio de Janeiro",-43.3017678,787,BANCO ITAÚ - AGÊNCIA 9165 - PRAÇA HUMAITÁ,DUQUE DE CAXIAS,1279,5,0,51,0,1076,181,66
794,627,615,2293,JARDIM 25 DE AGOSTO,25075142,"RUA PROF. JOSÉ DE SOUZA HERDY, 450",-22.790632,"RUA PROF. JOSÉ DE SOUZA HERDY, 450, JARDIM 25 DE AGOSTO, DUQUE DE CAXIAS, Rio de Janeiro",-43.3046874,872,COLÉGIO ESTADUAL PROFESSOR JOSÉ DE SOUZA HERDY,DUQUE DE CAXIAS,1058,6,0,53,0,1421,204,66
409,443,298,1311,CORTE OITO,25030060,"RUA PETRÓPOLIS, 405",-22.7676959,"RUA PETRÓPOLIS, 405, CORTE OITO, DUQUE DE CAXIAS, Rio de Janeiro",-43.307019,459,ESCOLA MUNICIPAL GASTÃO REIS,DUQUE DE CAXIAS,1120,4,0,33,0,852,128,77
658,700,529,2238,PARADA ANGÉLICA,25272540,"RUA LÚCIA HELENA FACCINI, 08",-22.61848,"RUA LÚCIA HELENA FACCINI, 08, PARADA ANGÉLICA, DUQUE DE CAXIAS, Rio de Janeiro",-43.20274,880,ESCOLA MUNICIPAL MARECHAL FLORIANO PEIXOTO,DUQUE DE CAXIAS,1090,6,0,85,0,1358,266,127
1577,1044,984,4154,SANTA LÚCIA,25275450,"AV. FELICIANO SODRÉ, S/N",-22.64633,"AV. FELICIANO SODRÉ, S/N, SANTA LÚCIA, DUQUE DE CAXIAS, Rio de Janeiro",-43.22267,1533,CIEP 171 - JOSÉ AMÉRICO PESSANHA,DUQUE DE CAXIAS,1015,11,0,177,0,2621,372,127
1055,1002,992,3461,PARQUE SENHOR DO BONFIM,25000000,AV. SALGADO FILHO 434,-22.6523137,"AV. SALGADO FILHO 434, PARQUE SENHOR DO BONFIM, DUQUE DE CAXIAS, Rio de Janeiro",-43.271238,1404,ESCOLA MUNICIPAL ZILLA JUNGER,DUQUE DE CAXIAS,1309,11,0,88,0,2057,324,103
1029,1055,877,3370,VILA SÃO LUIS,25065090,AV PRESIDENTE TANCREDO NEVES 1067,-22.7741603,"AV PRESIDENTE TANCREDO NEVES 1067, VILA SÃO LUIS, DUQUE DE CAXIAS, Rio de Janeiro",-43.2997293,1286,ESCOLA MUNICIPAL LIONS,DUQUE DE CAXIAS,1228,9,0,86,0,2084,323,78
319,2515,752,3878,AMAPÁ,25056110,ESTRADA DO AMAPA S/N,-22.68633,"ESTRADA DO AMAPA S/N, AMAPÁ, DUQUE DE CAXIAS, Rio de Janeiro",-43.3522,1044,CIEP 348 - EUGENIA MOREYRA,DUQUE DE CAXIAS,1600,10,0,80,0,2834,212,79
2859,1851,1483,6840,PANTANAL,25040160,AV. GOMES FREIRE S/N,-22.74556,"AV. GOMES FREIRE S/N, PANTANAL, DUQUE DE CAXIAS, Rio de Janeiro",-43.31337,2130,CIEP CLEMENTINA DE JESUS,DUQUE DE CAXIAS,1805,18,0,188,0,4710,459,79
493,771,399,1909,SARAPUÍ,25050040,RUA ALEX LUNDGREN 21/22,-22.7511911,"RUA ALEX LUNDGREN 21/22, SARAPUÍ, DUQUE DE CAXIAS, Rio de Janeiro",-43.3035058,645,COLÉGIO SÃO MIGUEL ARCANJO,DUQUE DE CAXIAS,1236,5,0,57,0,1264,189,78
1929,1441,1434,5463,SÃO BENTO,25045010,AV. PRESIDENTE KENNEDY 9422,-22.7206399,"AV. PRESIDENTE KENNEDY 9422, SÃO BENTO, DUQUE DE CAXIAS, Rio de Janeiro",-43.320019,2093,FEUDUC,DUQUE DE CAXIAS,1252,14,0,164,0,3370,495,79
1191,519,565,2520,BAR DOS CAVALEIROS,25015420,RUA CAMPOS 55,-22.7957449,"RUA CAMPOS 55, BAR DOS CAVALEIROS, DUQUE DE CAXIAS, Rio de Janeiro",-43.3235064,810,ESCOLA MUNICIPAL PROF. HILDA DO CARMO SIQUEIRA,DUQUE DE CAXIAS,1384,8,0,40,0,1710,205,103
1495,1688,1226,4963,CENTENÁRIO,25020210,RUA MANOEL VIEIRA S/N,-22.78307,"RUA MANOEL VIEIRA S/N, CENTENÁRIO, DUQUE DE CAXIAS, Rio de Janeiro",-43.31338,1780,ESCOLA MUNICIPAL CARLOTA MACHADO,DUQUE DE CAXIAS,1384,14,0,142,0,3183,412,77
646,1787,1048,3892,FIGUEIRA,25230020,AV. DEMETRIO RIBEIRO S/N,-22.68802,"AV. DEMETRIO RIBEIRO S/N, FIGUEIRA, DUQUE DE CAXIAS, Rio de Janeiro",-43.28859,1459,COLEGIO ESTADUAL FREI HENRIQUE DE COIMBRA,DUQUE DE CAXIAS,1414,10,0,104,0,2433,307,126
953,794,637,2704,VILA SÃO LUIS,25065005,RUA DR. CARLOS ESTEVES S/N (ESQ. COM R. STA TERESA),-22.77668,"RUA DR. CARLOS ESTEVES S/N (ESQ. COM R. STA TERESA), VILA SÃO LUIS, DUQUE DE CAXIAS, Rio de Janeiro",-43.29061,957,ESCOLA MUNICIPAL MARECHAL MALLET,DUQUE DE CAXIAS,1031,7,0,67,0,1747,253,200
1617,1684,1224,5307,SARACURUNA,25212390,AV. PRESIDENTE ROOSEVELT S/N,-22.67558,"AV. PRESIDENTE ROOSEVELT S/N, SARACURUNA, DUQUE DE CAXIAS, Rio de Janeiro",-43.25368,2006,CIEP 318 - PAULO MENDES CAMPOS,DUQUE DE CAXIAS,1422,14,0,181,0,3301,601,126
763,805,579,2420,CORTE OITO,25030060,"RUA PETRÓPOLIS, 175",-22.7696281,"RUA PETRÓPOLIS, 175, CORTE OITO, DUQUE DE CAXIAS, Rio de Janeiro",-43.307418,852,ESCOLA MUNICIPAL ANÍSIO SPINOLA TEIXEIRA,DUQUE DE CAXIAS,1112,7,0,72,0,1568,201,77
813,752,704,2588,ITATIAIA,25070000,"RUA ALBERTO TORRES, 124",-22.7803607,"RUA ALBERTO TORRES, 124, ITATIAIA, DUQUE DE CAXIAS, Rio de Janeiro",-43.3056296,1023,EDUCANDARIO CRUZEIRO DO SUL,DUQUE DE CAXIAS,1066,9,0,69,0,1565,250,200
424,258,288,1058,VILA OPERARIA,25080520,"RUA BADGER DA SILVEIRA, 9",-22.782072,"RUA BADGER DA SILVEIRA, 9, VILA OPERARIA, DUQUE DE CAXIAS, Rio de Janeiro",-43.29644,376,ESCOLA MUNICIPAL VILA OPERARIA,DUQUE DE CAXIAS,1376,3,0,26,0,682,62,66
1084,850,763,3106,PARQUE PAULICÉIA,25071000,RUA PARANA 739,-22.6453451,"RUA PARANA 739, PARQUE PAULICÉIA, DUQUE DE CAXIAS, Rio de Janeiro",-43.2827206,1172,ESCOLA MUNICIPAL MOTA SOBRINHO,DUQUE DE CAXIAS,1023,9,0,88,0,1934,321,200
419,1226,473,2484,TAQUARA,25270000,"PRAÇA SÃO PAULO, S/N",-22.60078,"PRAÇA SÃO PAULO, S/N, TAQUARA, DUQUE DE CAXIAS, Rio de Janeiro",-43.29148,839,ESCOLA MUNICIPAL BARÃO DA TAQUARA,DUQUE DE CAXIAS,1333,7,0,82,0,1645,284,127
968,669,468,2353,PANTANAL,25040160,AV GOMES FREIRE S/N,-22.74556,"AV GOMES FREIRE S/N, PANTANAL, DUQUE DE CAXIAS, Rio de Janeiro",-43.31337,716,ESCOLA MUNICIPAL MARIA CLARA MACHADO (ANT. MARIA TENÓRIO),DUQUE DE CAXIAS,2232,7,0,63,0,1637,185,79
2532,1805,1585,6643,PANTANAL,25040060,AV. LAURO SODRE S/N,-22.95656,"AV. LAURO SODRE S/N, PANTANAL, DUQUE DE CAXIAS, Rio de Janeiro",-43.17773,2306,CIEP GRACILIANO RAMOS,DUQUE DE CAXIAS,1376,17,0,184,0,4337,537,79
786,1214,601,2941,PILAR,25230140,RUA DA FELICIDADE 03,-22.69963,"RUA DA FELICIDADE 03, PILAR, DUQUE DE CAXIAS, Rio de Janeiro",-43.29248,941,ESCOLA MUNICIPAL SOLANO TRINDADE,DUQUE DE CAXIAS,2151,8,0,106,0,2000,234,79
370,1257,480,2272,SANTO ANTONIO,25253550,RUA MANOEL GARCIA DA SILVA S/N,-22.60572,"RUA MANOEL GARCIA DA SILVA S/N, SANTO ANTONIO, DUQUE DE CAXIAS, Rio de Janeiro",-43.2748,645,ESCOLA ESTADUAL HERVALINA DINIZ PIRES,DUQUE DE CAXIAS,1120,7,0,42,0,1627,123,128
987,945,569,2900,VILA SÃO LUIS,25065172,AV. BRASIL S/N (ESQ. COM R. QUATORZE DE JULHO),-22.77939,"AV. BRASIL S/N (ESQ. COM R. QUATORZE DE JULHO), VILA SÃO LUIS, DUQUE DE CAXIAS, Rio de Janeiro",-43.29061,968,ESCOLA ESTADUAL PROFESSORA LIA MARCIA GONÇALVES PANARO,DUQUE DE CAXIAS,1104,8,0,96,0,1932,303,200
1419,694,727,3104,PARQUE FELICIDADE,25080570,"RUA BARBOSA ARAÚJO, 265",-22.785483,"RUA BARBOSA ARAÚJO, 265, PARQUE FELICIDADE, DUQUE DE CAXIAS, Rio de Janeiro",-43.2977861,991,ESCOLA MUNICIPAL ONERES NUNES DE OLIVEIRA - ANTIGO COLEGIO FLUMINENSE,DUQUE DE CAXIAS,1228,8,0,51,0,2113,213,66
1686,2191,1296,5950,PILAR,25233090,"RUA LEONTINA MEZIOT, S/N",-22.71004,"RUA LEONTINA MEZIOT, S/N, PILAR, DUQUE DE CAXIAS, Rio de Janeiro",-43.30456,2073,CIEP 404 - CLARICE LISPECTOR,DUQUE DE CAXIAS,1082,15,0,191,0,3877,586,79
493,1089,718,2685,PARQUE EQUITATIVA,25260390,"AV. DUQUE DE CAXIAS, 153",-22.7844977,"AV. DUQUE DE CAXIAS, 153, PARQUE EQUITATIVA, DUQUE DE CAXIAS, Rio de Janeiro",-43.3081957,1103,ESCOLA MUNICIPAL MINERVINA BARBOSA DE CASTRO,DUQUE DE CAXIAS,1104,9,0,86,0,1582,299,127
378,992,411,2012,TAQUARA,25270010,"ESTRADA CACHOEIRA DAS DORES, 410",-22.6131948,"ESTRADA CACHOEIRA DAS DORES, 410, TAQUARA, DUQUE DE CAXIAS, Rio de Janeiro",-43.2381695,642,ESCOLA ESTADUAL NOVA AMÉRICA,DUQUE DE CAXIAS,1139,6,0,49,0,1370,182,127
438,1848,363,2851,MANTIQUIRA,25250570,"RUA DR. OSMUNDO RIBEIRO DUARTE, S/N",-22.79001,"RUA DR. OSMUNDO RIBEIRO DUARTE, S/N, MANTIQUIRA, DUQUE DE CAXIAS, Rio de Janeiro",-43.32607,565,ESCOLA MUNICIPAL SANTO AGOSTINHO,DUQUE DE CAXIAS,1155,8,0,37,0,2286,165,128
309,587,249,1319,CRISTÓVÃO COLOMBO,25270000,"RUA ZUMBI DOS PALMARES, S/N",-22.71957,"RUA ZUMBI DOS PALMARES, S/N, CRISTÓVÃO COLOMBO, DUQUE DE CAXIAS, Rio de Janeiro",-43.31058,423,ESCOLA MUNICIPAL MÁRCIO FIAT,DUQUE DE CAXIAS,1252,4,0,56,0,896,118,127
745,873,802,2701,CENTENÁRIO,25025010,"RUA DOUTOR MANOEL REIS, 501",-22.7791667,"RUA DOUTOR MANOEL REIS, 501, CENTENÁRIO, DUQUE DE CAXIAS, Rio de Janeiro",-43.3153215,1083,COLÉGIO PEDRO II,DUQUE DE CAXIAS,1040,7,0,71,0,1618,210,77
346,412,207,1075,COPACABANA,25060360,RUA ITU S/N,-22.75506,"RUA ITU S/N, COPACABANA, DUQUE DE CAXIAS, Rio de Janeiro",-43.29975,317,(BRIZOLINHA) ESCOLA ESTADUAL GILBERTO FREIRE,DUQUE DE CAXIAS,1260,3,0,19,0,758,91,78
717,1901,754,3890,JARDIM ANHANGÁ,25264350,"AV. ANHANGÁ, S/N",-22.64341,"AV. ANHANGÁ, S/N, JARDIM ANHANGÁ, DUQUE DE CAXIAS, Rio de Janeiro",-43.23172,1272,CIEP 319 - ODUVALDO VIANA FILHO,DUQUE DE CAXIAS,1244,11,0,151,0,2618,367,127
274,1543,508,2577,JARDIM BARRO BRANCO,25267120,"AV. PEDRO ÁLVARES CABRAL, LT 27 QD 10",-22.63575,"AV. PEDRO ÁLVARES CABRAL, LT 27 QD 10, JARDIM BARRO BRANCO, DUQUE DE CAXIAS, Rio de Janeiro",-43.24389,760,ESCOLA MUNICIPAL BARRO BRANCO,DUQUE DE CAXIAS,1260,7,0,61,0,1817,191,127
1420,784,883,3514,PARQUE LAFAIETE,25025010,RUA DAVID DE OLIVEIRA S/N,-22.78529,"RUA DAVID DE OLIVEIRA S/N, PARQUE LAFAIETE, DUQUE DE CAXIAS, Rio de Janeiro",-43.32507,1310,ESCOLA MUNICIPAL SANTA TEREZINHA,DUQUE DE CAXIAS,1490,9,0,75,0,2204,352,103
1287,1120,1105,3859,SANTA TERESA,25086030,"ESTRADA SÃO VICENTE, 98",-22.6577944,"ESTRADA SÃO VICENTE, 98, SANTA TERESA, DUQUE DE CAXIAS, Rio de Janeiro",-43.2827284,1452,CIEP 098 PROFESSORA HILDA DO CARMO SIQUEIRA,DUQUE DE CAXIAS,1015,13,0,69,0,2407,278,200
1235,979,859,3467,PERIQUITOS,25025320,"RUA BERNARDO MONTEIRO, 13",-22.7814553,"RUA BERNARDO MONTEIRO, 13, PERIQUITOS, DUQUE DE CAXIAS, Rio de Janeiro",-43.324596,1253,ESCOLA ESTADUAL INÁCIO BEZERRA DE MENEZES,DUQUE DE CAXIAS,1252,9,0,97,0,2214,297,77
900,824,929,3098,JARDIM 25 DE AGOSTO,25075100,"RUA GENERAL MITRE, 587",-22.7948619,"RUA GENERAL MITRE, 587, JARDIM 25 DE AGOSTO, DUQUE DE CAXIAS, Rio de Janeiro",-43.2991584,1374,INSTITUTO DE EDUCACAO GOVERNADOR ROBERTO SILVEIRA,DUQUE DE CAXIAS,1074,8,0,93,0,1724,352,66
127,278,158,674,PARQUE PAULISTA,25265000,"RUA MALHERBE, QD 90 LT 1",-22.64303,"RUA MALHERBE, QD 90 LT 1, PARQUE PAULISTA, DUQUE DE CAXIAS, Rio de Janeiro",-43.25884,269,ESCOLA MUNICIPAL LUIZ GAMA BORGES,DUQUE DE CAXIAS,1430,2,0,27,0,405,84,127
1182,1028,857,3536,VILA SÃO LUIS,25065090,RUA EXPEDICIONARIO JOSE AMARO 104,-22.7746791,"RUA EXPEDICIONARIO JOSE AMARO 104, VILA SÃO LUIS, DUQUE DE CAXIAS, Rio de Janeiro",-43.2989157,1326,INSTITUTO LOIDE MARTA,DUQUE DE CAXIAS,1112,9,0,102,0,2210,367,200
529,606,456,1783,COPACABANA,25060200,RUA PRESIDENTE JUSCELINO KUBISTCHEK DE OLIVEIRA 4160,-22.76582,"RUA PRESIDENTE JUSCELINO KUBISTCHEK DE OLIVEIRA 4160, COPACABANA, DUQUE DE CAXIAS, Rio de Janeiro",-43.29963,648,ESCOLA ESTADUAL GENERAL TIBÚRCIO,DUQUE DE CAXIAS,1023,5,0,50,0,1135,142,78
873,1589,828,3850,CAMPOS ELÍSEOS,25225636,ESTRADA DO ROSARIO 118,-22.6795262,"ESTRADA DO ROSARIO 118, CAMPOS ELÍSEOS, DUQUE DE CAXIAS, Rio de Janeiro",-43.283116,1388,ESCOLA MUNICIPAL MONTEIRO LOBATO,DUQUE DE CAXIAS,1015,10,0,146,0,2462,414,126
272,1027,436,1917,PARQUE ELDORADO,25240170,RUA RIO DE JANEIRO 113,-22.6437749,"RUA RIO DE JANEIRO 113, PARQUE ELDORADO, DUQUE DE CAXIAS, Rio de Janeiro",-43.2864399,618,ESCOLA MUNICIPAL JOAO FAUSTINO FRANCA SOBRINHO,DUQUE DE CAXIAS,1031,6,0,43,0,1299,139,128
1775,1409,1197,5141,JARDIM PRIMAVERA,25223230,RUA AMILCAR MARAPANIM S/N,-22.68854,"RUA AMILCAR MARAPANIM S/N, JARDIM PRIMAVERA, DUQUE DE CAXIAS, Rio de Janeiro",-43.2546,1957,CIEP 208 ALCEU AMOROSO LIMA,DUQUE DE CAXIAS,1090,13,0,198,0,3184,562,126
795,1416,918,3658,IMBARIÊ,25267000,"RUA GOINDIRA, S/N",-22.63884,"RUA GOINDIRA, S/N, IMBARIÊ, DUQUE DE CAXIAS, Rio de Janeiro",-43.21827,1447,COLÉGIO ESTADUAL DOUTOR ALFREDO BACKER,DUQUE DE CAXIAS,1023,10,0,133,0,2211,396,127
1015,1061,742,3161,DOUTOR LAUREANO,25065170,RUA LEANDRO DA MOTA 159,-22.6328288,"RUA LEANDRO DA MOTA 159, DOUTOR LAUREANO, DUQUE DE CAXIAS, Rio de Janeiro",-43.2178375,1085,CRECHE MUN. GRACIESSE LUÍSA SILVA LOURENÇO(CRUZEIRO DO SUL),DUQUE DE CAXIAS,1090,9,0,70,0,2076,273,78
1143,1722,1203,4598,SARAPUÍ,25050100,"AV REPUBLICA DO PARAGUAI, S/N",-22.74951,"AV REPUBLICA DO PARAGUAI, S/N, SARAPUÍ, DUQUE DE CAXIAS, Rio de Janeiro",-43.29802,1733,CIEP CARLOS CHAGAS,DUQUE DE CAXIAS,1163,12,0,138,0,2865,392,78
550,660,438,1895,SARACURUNA,25211010,RUA PETROLINA S/N,-22.65967,"RUA PETROLINA S/N, SARACURUNA, DUQUE DE CAXIAS, Rio de Janeiro",-43.25106,685,ESCOLA ESTADUAL ALBERTO SANTOS DUMONT,DUQUE DE CAXIAS,1430,5,0,62,0,1210,185,126
744,581,697,2289,CENTRO,25010009,"AVENIDA PRESIDENTE KENNEDY,1861",-22.7856043,"AVENIDA PRESIDENTE KENNEDY,1861, CENTRO, DUQUE DE CAXIAS, Rio de Janeiro",-43.3106834,964,CATEDRAL DE SANTO ANTONIO,DUQUE DE CAXIAS,1163,7,0,55,0,1325,212,103
576,509,335,1649,JARDIM OLAVO BILAC,25036040,"RUA PEDRO LESSA, QD 04 LT 18 E 19",-22.7632,"RUA PEDRO LESSA, QD 04 LT 18 E 19, JARDIM OLAVO BILAC, DUQUE DE CAXIAS, Rio de Janeiro",-43.32092,564,CVT/FAETEC,DUQUE DE CAXIAS,1180,5,0,46,0,1085,183,194
666,963,697,2656,SARAPUÍ,25050010,RUA HERMAN LUNDGREN LT 4 QD 4,-22.77288,"RUA HERMAN LUNDGREN LT 4 QD 4, SARAPUÍ, DUQUE DE CAXIAS, Rio de Janeiro",-43.28439,1027,COLÉGIO ESTADUAL SÃO BENTO,DUQUE DE CAXIAS,1171,7,0,82,0,1629,248,78
1368,832,757,3308,PANTANAL,25040240,RUA DELGADO CARVALHO LT 40 QD 52,-22.78741,"RUA DELGADO CARVALHO LT 40 QD 52, PANTANAL, DUQUE DE CAXIAS, Rio de Janeiro",-43.31298,1108,CENTRO EDUCACIONAL SILVA TAVARES - ANT. ARCO ÍRIS,DUQUE DE CAXIAS,2135,10,0,95,0,2200,256,79
825,1837,950,4058,SARACURUNA,25220650,RUA PEDRO I S/N,-22.68115,"RUA PEDRO I S/N, SARACURUNA, DUQUE DE CAXIAS, Rio de Janeiro",-43.23906,1396,ESCOLA MUNICIPAL PEDRO RODRIGUES DO CARMO,DUQUE DE CAXIAS,1570,11,0,118,0,2662,328,126
813,2440,1051,5097,FRANGO DOURADO,25251130,RUA BOITATA S/N,-22.65504,"RUA BOITATA S/N, FRANGO DOURADO, DUQUE DE CAXIAS, Rio de Janeiro",-43.27948,1844,CIEP 320 - ARCAMPO,DUQUE DE CAXIAS,1015,13,0,177,0,3253,616,128
771,1357,807,3582,PARQUE EQUITATIVA,25260000,"RUA MARQUES DE LAFAIETE, 70",-22.6348193,"RUA MARQUES DE LAFAIETE, 70, PARQUE EQUITATIVA, DUQUE DE CAXIAS, Rio de Janeiro",-43.2655334,1454,ESCOLA MUNICIPAL SANTA LUZIA,DUQUE DE CAXIAS,1414,10,0,146,0,2128,501,127
129,300,133,659,JARDIM ANHANGÁ,25275000,"RUA JUJUÍ, 65 - ATRÁS DO MERCADO CELMA",-22.648867,"RUA JUJUÍ, 65 - ATRÁS DO MERCADO CELMA, JARDIM ANHANGÁ, DUQUE DE CAXIAS, Rio de Janeiro",-43.2337453,230,CENTRO EDUCACIONAL SANTA MÔNICA,DUQUE DE CAXIAS,1465,2,0,29,0,429,68,127
474,1703,804,3200,XERÉM,25250400,RUA DOS ENGENHEIROS-F.N.M. S/N,-22.59684,"RUA DOS ENGENHEIROS-F.N.M. S/N, XERÉM, DUQUE DE CAXIAS, Rio de Janeiro",-43.30053,1023,COLEGIO ESTADUAL BARAO DE MAUA,DUQUE DE CAXIAS,1082,9,0,50,0,2177,169,128
1100,881,837,3234,PAULICÉIA,25070015,"RUA ARTUR NEIVA, 100",-22.7021116,"RUA ARTUR NEIVA, 100, PAULICÉIA, DUQUE DE CAXIAS, Rio de Janeiro",-43.2916394,1253,SESI,DUQUE DE CAXIAS,1139,9,0,91,0,1981,325,200
1533,1099,1000,4291,JARDIM PRIMAVERA,25212360,RUA SANTA RITA S/N,-22.6065,"RUA SANTA RITA S/N, JARDIM PRIMAVERA, DUQUE DE CAXIAS, Rio de Janeiro",-43.27857,1659,ESCOLA ESTADUAL ALEXANDER GRAHAM BELL,DUQUE DE CAXIAS,1112,11,0,161,0,2632,498,126
617,2284,952,4166,XERÉM,25070000,PRACA PREF. ROBERTO SILVEIRA S/N,-22.78766,"PRACA PREF. ROBERTO SILVEIRA S/N, XERÉM, DUQUE DE CAXIAS, Rio de Janeiro",-43.29604,1265,ESCOLA ESTADUAL CIRCULO OPERARIO,DUQUE DE CAXIAS,1236,12,0,58,0,2901,255,128
839,491,411,1903,VILA OPERARIA,25080510,PRACA JOSE DE JESUS S/N,-22.78916,"PRACA JOSE DE JESUS S/N, VILA OPERARIA, DUQUE DE CAXIAS, Rio de Janeiro",-43.29765,573,POSTO DE SAUDE DOUTOR JOSE DE FREITAS,DUQUE DE CAXIAS,1295,5,0,46,0,1330,116,66
681,406,449,1730,SÃO BENTO,25045000,RUA PAULO FREIRE  S/N - ANT. RUA F,-22.78112,"RUA PAULO FREIRE  S/N - ANT. RUA F, SÃO BENTO, DUQUE DE CAXIAS, Rio de Janeiro",-43.30914,643,ESCOLA MUNICIPAL SETE DE SETEMBRO,DUQUE DE CAXIAS,1228,5,0,37,0,1087,157,79
995,544,633,2383,PARQUE BEIRA MAR,25085460,RUA FLORIANOPOLIS 75,-22.7906959,"RUA FLORIANOPOLIS 75, PARQUE BEIRA MAR, DUQUE DE CAXIAS, Rio de Janeiro",-43.2910522,844,COLÉGIO ESTADUAL DULCE PETRI,DUQUE DE CAXIAS,1210,6,0,36,0,1539,175,66
268,832,375,1694,FIGUEIRA,25230610,"ESTRADA VELHA DO PILAR, N. 50",-22.6793266,"ESTRADA VELHA DO PILAR, N. 50, FIGUEIRA, DUQUE DE CAXIAS, Rio de Janeiro",-43.2835795,594,ESCOLA MUNICIPAL PROFESSOR WALTER RUSSO DE SOUZA,DUQUE DE CAXIAS,1775,5,0,65,0,1100,154,126
630,581,475,1927,ITATIAIA,25070512,RUA ITABIRA 469,-22.67144,"RUA ITABIRA 469, ITATIAIA, DUQUE DE CAXIAS, Rio de Janeiro",-43.25447,716,CLUBE ITAPERUNA FUTEBOL CAXIENSE,DUQUE DE CAXIAS,1082,6,0,48,0,1211,193,200
569,1147,822,2992,PARQUE PAULISTA,25261320,"AVENIDA 31 DE MARÇO, S/N",-22.65793,"AVENIDA 31 DE MARÇO, S/N, PARQUE PAULISTA, DUQUE DE CAXIAS, Rio de Janeiro",-43.2543,1276,ESCOLA ESTADUAL PADRE ANCHIETA,DUQUE DE CAXIAS,1112,9,0,114,0,1716,340,127
509,2888,970,4673,XERÉM,25245410,RUA ENEAS FRUTUOSO S/N,-22.57707,"RUA ENEAS FRUTUOSO S/N, XERÉM, DUQUE DE CAXIAS, Rio de Janeiro",-43.30952,1276,CIEP 338 - CELIA RABELO,DUQUE DE CAXIAS,1244,13,0,63,0,3397,243,128
534,690,378,1809,CENTENÁRIO,25030130,"AV. JOAQUIM NABUCO, 242",-22.7780493,"AV. JOAQUIM NABUCO, 242, CENTENÁRIO, DUQUE DE CAXIAS, Rio de Janeiro",-43.3168696,585,CENTRO EDUCACIONAL VIEIRA PASSOS,DUQUE DE CAXIAS,1406,5,0,48,0,1224,159,77
683,311,427,1553,BAR DOS CAVALEIROS,25025000,"AVENIDA NILO PEÇANHA, 2.279",-22.7928628,"AVENIDA NILO PEÇANHA, 2.279, BAR DOS CAVALEIROS, DUQUE DE CAXIAS, Rio de Janeiro",-43.3275989,559,ESCOLA MUNICIPAL VISCONDE DE ITABORAÍ,DUQUE DE CAXIAS,1546,6,0,31,0,994,101,103
715,317,298,1475,PARQUE LAFAIETE,25015310,"RUA RAMIZ GALVÃO, 200",-22.7907292,"RUA RAMIZ GALVÃO, 200, PARQUE LAFAIETE, DUQUE DE CAXIAS, Rio de Janeiro",-43.3239184,443,COMPLEXO CULTURAL CAÇA TALENTOS,DUQUE DE CAXIAS,1333,5,0,42,0,1032,103,103
1229,1101,982,3740,CAROLINA,25070140,RUA PRIMEIRO DE MAIO 156,-22.7752761,"RUA PRIMEIRO DE MAIO 156, CAROLINA, DUQUE DE CAXIAS, Rio de Janeiro",-43.3057096,1410,CIEP MINISTRO SANTIAGO DANTAS,DUQUE DE CAXIAS,1252,12,0,112,0,2330,316,78
223,283,246,864,GRAMACHO,25035185,RUA JOAQUIM JOSE SOARES 525,-22.7550482,"RUA JOAQUIM JOSE SOARES 525, GRAMACHO, DUQUE DE CAXIAS, Rio de Janeiro",-43.30589,358,JD. ESCOLA ARCO IRIS,DUQUE DE CAXIAS,1236,4,0,30,0,506,82,194
454,716,423,1859,IMBARIÊ,25266250,"AV. CORONEL SISSON, S/N",-22.64096,"AV. CORONEL SISSON, S/N, IMBARIÊ, DUQUE DE CAXIAS, Rio de Janeiro",-43.21885,689,ESCOLA MUNICIPAL PROFESSORA CARMEM CORREA DE CARVALHO REIS BRÁZ,DUQUE DE CAXIAS,1198,6,0,74,0,1170,192,127
407,365,284,1253,PARQUE PAULICÉIA,25070102,AV. DUQUE DE CAXIAS S/N,-22.6328,"AV. DUQUE DE CAXIAS S/N, PARQUE PAULICÉIA, DUQUE DE CAXIAS, Rio de Janeiro",-43.26451,481,IGREJA PRESBITERIANA,DUQUE DE CAXIAS,1198,4,0,43,0,772,154,200
1670,1508,1127,4942,JARDIM LEAL,25035570,RUA SOLANGE 7,-22.77615,"RUA SOLANGE 7, JARDIM LEAL, DUQUE DE CAXIAS, Rio de Janeiro",-43.29215,1764,CIEP JARDIM LEAL,DUQUE DE CAXIAS,1031,15,0,132,0,3178,505,194
1098,1147,829,3418,DOUTOR LAUREANO,25060220,RUA LAURINDO RABELO S/N,-22.76971,"RUA LAURINDO RABELO S/N, DOUTOR LAUREANO, DUQUE DE CAXIAS, Rio de Janeiro",-43.29927,1173,ESCOLA MUNICIPAL SERGIPE,DUQUE DE CAXIAS,1066,9,0,80,0,2245,264,78
878,895,705,2853,VILA SÃO LUIS,25065090,RUA EXPEDICIONARIO JOSE AMARO 305,-22.7747144,"RUA EXPEDICIONARIO JOSE AMARO 305, VILA SÃO LUIS, DUQUE DE CAXIAS, Rio de Janeiro",-43.2966689,1080,EDUCANDÁRIO SANTA CECÍLIA,DUQUE DE CAXIAS,1210,9,0,77,0,1773,298,78
886,433,440,2009,CENTRO,25015020,RUA MILTON MENDONCA S/N,-22.78689,"RUA MILTON MENDONCA S/N, CENTRO, DUQUE DE CAXIAS, Rio de Janeiro",-43.31898,690,ESCOLA ESTADUAL PROFESSORA NORMA TOOP URUGUAI,DUQUE DE CAXIAS,1430,6,0,47,0,1319,203,103
925,558,541,2312,PARQUE SANTA MARTA,25085210,"RUA SOUZA RENHA, 09",-22.70255,"RUA SOUZA RENHA, 09, PARQUE SANTA MARTA, DUQUE DE CAXIAS, Rio de Janeiro",-43.29253,829,ASCE CEI CENTRO EDUCACIONAL INTEGRADO,DUQUE DE CAXIAS,1023,6,0,55,0,1483,233,66
1008,1203,715,3458,GRAMACHO,25035150,"RUA VEREADOR TOME SIQUEIRA BARRETO, 295",-22.7600894,"RUA VEREADOR TOME SIQUEIRA BARRETO, 295, GRAMACHO, DUQUE DE CAXIAS, Rio de Janeiro",-43.3082227,1247,ESCOLA ESTADUAL AURA BARRETO,DUQUE DE CAXIAS,1058,9,0,106,0,2211,426,194
507,1891,700,3368,XERÉM,25250080,"RUA RIO GRANDE DO SUL, N 17",-22.7810611,"RUA RIO GRANDE DO SUL, N 17, XERÉM, DUQUE DE CAXIAS, Rio de Janeiro",-43.2999368,970,ESCOLA MINICIPAL DOUTOR ELY COMBAT,DUQUE DE CAXIAS,1104,9,0,48,0,2398,222,128
273,388,166,958,SARACURUNA,25212665,"RUA BARÃO DO RIO BRANCO, LT. 09, QD. 01, PARQUE URUGUAIANA",-22.67433,"RUA BARÃO DO RIO BRANCO, LT. 09, QD. 01, PARQUE URUGUAIANA, SARACURUNA, DUQUE DE CAXIAS, Rio de Janeiro",-43.25247,297,ESCOLA MUNICIPAL PROFESSORA MARIA DAS GRAÇAS CARDOSO BIGHI,DUQUE DE CAXIAS,1783,3,0,34,0,661,97,126
692,639,672,2249,JARDIM OLAVO BILAC,25035800,RUA PEDRO LESSA LT 16/17 QD 12,-22.7632,"RUA PEDRO LESSA LT 16/17 QD 12, JARDIM OLAVO BILAC, DUQUE DE CAXIAS, Rio de Janeiro",-43.32092,918,QUADRA ASSOCIAÇÃO EDUCACIONAL COLEGIO OLAVO BILAC,DUQUE DE CAXIAS,1104,7,0,58,0,1331,188,194
85,494,152,804,PARQUE ELDORADO,25240000,RUA DR JOSIAS DE FREITAS S/N,-22.64536,"RUA DR JOSIAS DE FREITAS S/N, PARQUE ELDORADO, DUQUE DE CAXIAS, Rio de Janeiro",-43.30021,225,ESCOLA ESTADUAL MUNICIPALIZADA TANCREDO NEVES,DUQUE DE CAXIAS,1287,2,0,26,0,579,47,128
697,279,328,1495,ENGENHO DO PORTO,25015280,"RUA RISOLETA CAETANO, 45",-22.7914544,"RUA RISOLETA CAETANO, 45, ENGENHO DO PORTO, DUQUE DE CAXIAS, Rio de Janeiro",-43.317917,519,EDUCANDARIO SANTA CLARA,DUQUE DE CAXIAS,1520,5,0,36,0,976,155,103
525,619,467,1891,SARACURUNA,25220010,RUA CORONEL CARLOS MATOS QD 3 LT. 22,-22.67433,"RUA CORONEL CARLOS MATOS QD 3 LT. 22, SARACURUNA, DUQUE DE CAXIAS, Rio de Janeiro",-43.25247,747,ESCOLA ESTADUAL VERA LÚCIA TAVARES ROMÃO,DUQUE DE CAXIAS,1465,5,0,58,0,1144,222,126
853,1004,606,2936,SANTA LÚCIA,25266000,"RUA TORMIN, 179 - CONJ. RES. 22 DE ABRIL - TASA",-22.6329,"RUA TORMIN, 179 - CONJ. RES. 22 DE ABRIL - TASA, SANTA LÚCIA, DUQUE DE CAXIAS, Rio de Janeiro",-43.2336,1079,ESCOLA MUNICIPAL ROBERTO WEGUELIN DE ABREU,DUQUE DE CAXIAS,1350,8,0,109,0,1857,364,127
437,783,376,1887,IMBARIÊ,25270000,"RUA GOINDIRA, 343",-22.6386549,"RUA GOINDIRA, 343, IMBARIÊ, DUQUE DE CAXIAS, Rio de Janeiro",-43.2182993,667,ESCOLA MUNICIPAL CARLOS DRUMMOND DE ANDRADE,DUQUE DE CAXIAS,1317,6,0,82,0,1220,209,127
22,119,30,181,BARREIRO,25230140,"RUA DA FELICIDADE, 35",-22.70067,"RUA DA FELICIDADE, 35, BARREIRO, DUQUE DE CAXIAS, Rio de Janeiro",-43.2921989,40,ESCOLA ESTADUAL MMUNICIPALIZADA PROFESSORA MARIANA NUNES PASSOS,DUQUE DE CAXIAS,1279,1,0,2,0,141,8,128
393,1272,579,2543,PARQUE ELDORADO,25250080,RUA RIO GRANDE DO SUL S/N,-22.78355,"RUA RIO GRANDE DO SUL S/N, PARQUE ELDORADO, DUQUE DE CAXIAS, Rio de Janeiro",-43.3023,878,ESCOLA ESTADUAL MARECHAL RONDON,DUQUE DE CAXIAS,1023,7,0,51,0,1665,248,128
1358,1604,1161,4649,CAMPOS ELÍSEOS,25225216,AV. TUPINAMBA DE CASTRO S/N,-22.70739,"AV. TUPINAMBA DE CASTRO S/N, CAMPOS ELÍSEOS, DUQUE DE CAXIAS, Rio de Janeiro",-43.22262,1687,ESCOLA ESTADUAL ADELINA CASTRO,DUQUE DE CAXIAS,1023,12,0,126,0,2962,400,126
929,876,735,2931,CENTRO,25020210,RUA MANOEL VIEIRA 397,-22.7830898,"RUA MANOEL VIEIRA 397, CENTRO, DUQUE DE CAXIAS, Rio de Janeiro",-43.3132314,1126,CLUBE RECREATIVO CAXIENSE,DUQUE DE CAXIAS,1090,8,0,75,0,1805,316,103
1080,613,498,2468,PARQUE FLUMINENSE,25045270,RUA JOSE DE AZEVEDO 156,-22.7294054,"RUA JOSE DE AZEVEDO 156, PARQUE FLUMINENSE, DUQUE DE CAXIAS, Rio de Janeiro",-43.3175347,775,ESCOLA MUNICIPAL PAULO FREIRE,DUQUE DE CAXIAS,1180,6,0,73,0,1693,204,79
706,1954,721,3841,FIGUEIRA,25230570,ALAMEDA PAULA LILIANE S/N,-22.67998,"ALAMEDA PAULA LILIANE S/N, FIGUEIRA, DUQUE DE CAXIAS, Rio de Janeiro",-43.2956,1181,ESCOLA  MUNICIPAL IMACULADA CONCEICAO,DUQUE DE CAXIAS,1511,10,0,106,0,2660,354,126
934,529,606,2287,PARQUE FLUMINENSE,25046560,RUA KNAUBER S/N,-22.72684,"RUA KNAUBER S/N, PARQUE FLUMINENSE, DUQUE DE CAXIAS, Rio de Janeiro",-43.32286,824,ESCOLA MUNICIPAL MINAS GERAIS,DUQUE DE CAXIAS,1201,6,0,62,0,1463,156,79
439,2104,760,3514,MANTIQUIRA,25245710,RUA EDIR BARBOSA 21,-22.5877022,"RUA EDIR BARBOSA 21, MANTIQUIRA, DUQUE DE CAXIAS, Rio de Janeiro",-43.3050386,971,ESCOLA ESTADUAL MONTEIRO LOBATO,DUQUE DE CAXIAS,1112,10,0,47,0,2543,164,128
642,688,571,2138,CAROLINA,25070140,RUA PRIMEIRO DE MAIO S/N,-22.77519,"RUA PRIMEIRO DE MAIO S/N, CAROLINA, DUQUE DE CAXIAS, Rio de Janeiro",-43.30388,808,COLÉGIO ESTADUAL RUI BARBOSA,DUQUE DE CAXIAS,1104,7,0,47,0,1330,190,78
1172,773,961,3314,CENTRO,25010300,RUA TENENTE JOSE DIAS 349,-22.789977,"RUA TENENTE JOSE DIAS 349, CENTRO, DUQUE DE CAXIAS, Rio de Janeiro",-43.3139778,1369,COLEGIO SANTO ANTONIO,DUQUE DE CAXIAS,1120,10,0,89,0,1945,319,103
977,668,511,2439,VILA ROSARIO,25040060,AVENIDA PRESIDENTE KENNEDY S/N,-22.79557,"AVENIDA PRESIDENTE KENNEDY S/N, VILA ROSARIO, DUQUE DE CAXIAS, Rio de Janeiro",-43.30527,794,ESCOLA MUNICIPAL JOSE CAMILO DOS SANTOS,DUQUE DE CAXIAS,2194,6,0,83,0,1645,200,79
493,679,376,1895,SARACURUNA,25212690,"RUA 15 DE NOVEMBRO, S/N",-22.69947,"RUA 15 DE NOVEMBRO, S/N, SARACURUNA, DUQUE DE CAXIAS, Rio de Janeiro",-43.30213,723,ESCOLA ESTADUAL PROFESSORA SARAH FARIA BRAZ,DUQUE DE CAXIAS,1767,5,0,81,0,1172,266,126
436,424,300,1373,BANANAL,25036120,"RUA DR. JOÃO CLEMENTINO, 817",-22.7619628,"RUA DR. JOÃO CLEMENTINO, 817, BANANAL, DUQUE DE CAXIAS, Rio de Janeiro",-43.3170198,513,ESCOLA MUNICIPAL DARCY VARGAS,DUQUE DE CAXIAS,1023,4,0,51,0,860,162,194
986,832,568,2716,PANTANAL,25040610,ESTRADA DO CALUNDU S/N - N.S. DO CARMO,-22.74649,"ESTRADA DO CALUNDU S/N - N.S. DO CARMO, PANTANAL, DUQUE DE CAXIAS, Rio de Janeiro",-43.32726,898,ESCOLA MUNICIPAL EULINA PINTO DE BARROS,DUQUE DE CAXIAS,1430,8,0,102,0,1818,228,79
470,732,373,1794,CAMPOS ELÍSEOS,25225000,RUA DAS TAMARINDAS S/N,-22.70328,"RUA DAS TAMARINDAS S/N, CAMPOS ELÍSEOS, DUQUE DE CAXIAS, Rio de Janeiro",-43.27861,592,ESCOLA MUNICIPAL DOUTOR MANOEL REIS,DUQUE DE CAXIAS,1031,5,0,56,0,1202,163,126
546,1695,671,3342,PARQUE ELDORADO,11111111,RUA PARANA 5 E 6,-22.63571,"RUA PARANA 5 E 6, PARQUE ELDORADO, DUQUE DE CAXIAS, Rio de Janeiro",-43.3053946,1101,CENTRO EDUCACIONAL RENASCER,DUQUE DE CAXIAS,1058,9,0,91,0,2241,339,128
448,401,422,1472,JARDIM 25 DE AGOSTO,25070390,"RUA TUIUTI, 257",-22.7861072,"RUA TUIUTI, 257, JARDIM 25 DE AGOSTO, DUQUE DE CAXIAS, Rio de Janeiro",-43.3062282,623,ESCOLA ESTADUAL MUNICIPALIZADA MANOEL JOAQUIM SALGUEIRO,DUQUE DE CAXIAS,1104,5,0,37,0,849,164,66
625,545,429,1819,JARDIM OLAVO BILAC,25036460,"RUA OTAVIO CARNEIRO, S/N",-22.76164,"RUA OTAVIO CARNEIRO, S/N, JARDIM OLAVO BILAC, DUQUE DE CAXIAS, Rio de Janeiro",-43.32189,649,ESCOLA MUNICIPAL GUSTAVO AMBRUST,DUQUE DE CAXIAS,1112,5,0,44,0,1170,176,194
1013,388,473,2013,PRAINHA,25011350,AV. PERIMETRAL ALCANTARA S/N,-22.79902,"AV. PERIMETRAL ALCANTARA S/N, PRAINHA, DUQUE DE CAXIAS, Rio de Janeiro",-43.32626,612,CIEP DA PRAINHA (CIEP- 198 PROFª. ROZA FERREIRA DE MATOS),DUQUE DE CAXIAS,1341,6,0,30,0,1401,109,103
413,435,263,1363,SANTA LÚCIA,25271000,"AV. AUTOMÓVEL CLUB, KM 56",-22.62206,"AV. AUTOMÓVEL CLUB, KM 56, SANTA LÚCIA, DUQUE DE CAXIAS, Rio de Janeiro",-43.21491,515,CIEP 330 - MARIA DA GLÓRIA CORREA LEMOS - ESMERALDO BERÇÁCOLLO,DUQUE DE CAXIAS,1325,4,0,73,0,848,179,127
193,629,222,1181,JARDIM ROTSEN,25272030,"AV. AUTOMÓVEL CLUB, S/N KM 52",-22.6428,"AV. AUTOMÓVEL CLUB, S/N KM 52, JARDIM ROTSEN, DUQUE DE CAXIAS, Rio de Janeiro",-43.28045,359,ESCOLA MUNICIPAL ALMIRANTE TAMANDARÉ,DUQUE DE CAXIAS,1384,4,0,34,0,822,103,127
421,1113,698,2467,JARDIM ANHANGÁ,25264000,"RUA VIOLETA, S/N",-22.64548,"RUA VIOLETA, S/N, JARDIM ANHANGÁ, DUQUE DE CAXIAS, Rio de Janeiro",-43.2328,933,ESCOLA MUNICIPAL GENERAL MOURÃO FILHO,DUQUE DE CAXIAS,1058,7,0,63,0,1534,172,127
687,582,660,2186,JARDIM 25 DE AGOSTO,25071190,"RUA MARECHAL DEODORO, 477",-22.7907134,"RUA MARECHAL DEODORO, 477, JARDIM 25 DE AGOSTO, DUQUE DE CAXIAS, Rio de Janeiro",-43.306866,917,CLUB DOS 500,DUQUE DE CAXIAS,1031,6,0,64,0,1269,193,66
601,612,686,2122,ITATIAIA,25070000,RUA ALBERTO TORRES 155,-22.7799688,"RUA ALBERTO TORRES 155, ITATIAIA, DUQUE DE CAXIAS, Rio de Janeiro",-43.3057886,909,FUNDAÇÃO DE APOIO À ESCOLA TÉCNICA - FAETEC,DUQUE DE CAXIAS,1074,8,0,51,0,1213,172,200
605,322,365,1481,CENTRO,25010180,"RUA DEPUTADO SOARES FILHO,218",-22.7883504,"RUA DEPUTADO SOARES FILHO,218, CENTRO, DUQUE DE CAXIAS, Rio de Janeiro",-43.3157649,554,PRIMEIRA IGREJA BATISTA DE DUQUE DE CAXIAS,DUQUE DE CAXIAS,1481,6,0,42,0,927,147,103
777,1150,494,2712,JARDIM GRAMACHO,25055030,RUA CONDEUBA S/N,-22.76042,"RUA CONDEUBA S/N, JARDIM GRAMACHO, DUQUE DE CAXIAS, Rio de Janeiro",-43.28278,785,ESCOLA MUNICIPAL JARDIM GRAMACHO,DUQUE DE CAXIAS,1309,7,0,60,0,1927,231,78
1369,1663,1136,5034,JARDIM PRIMAVERA,25215255,AV. EMILIO DE MENEZES S/N,-22.68315,"AV. EMILIO DE MENEZES S/N, JARDIM PRIMAVERA, DUQUE DE CAXIAS, Rio de Janeiro",-43.27879,2002,CIEP 369 JORNALISTA SANDRO MOREYRA,DUQUE DE CAXIAS,1104,13,0,187,0,3032,679,126
107,315,130,663,CHACARAS ARCAMPO,25251070,"RUA DO SERRADO, SN",-22.6529,"RUA DO SERRADO, SN, CHACARAS ARCAMPO, DUQUE DE CAXIAS, Rio de Janeiro",-43.27757,241,ESCOLA MUNICIPAL MEXICO,DUQUE DE CAXIAS,1260,2,0,27,0,422,84,128
528,280,252,1193,PARQUE FLUMINENSE,25045100,ESTRADA DO CHINA LOTE 10 QUADRA J,-22.73086,"ESTRADA DO CHINA LOTE 10 QUADRA J, PARQUE FLUMINENSE, DUQUE DE CAXIAS, Rio de Janeiro",-43.3184,385,ESCOLA ESTADUAL PROFESSORA CORDÉLIA PAIVA,DUQUE DE CAXIAS,2186,3,0,35,0,808,98,79
1252,649,676,2821,PARQUE LAGUNA E DOURADOS,25011320,RUA JOSE LUIZ RODRIGUES CALAZANS 355,-22.7967554,"RUA JOSE LUIZ RODRIGUES CALAZANS 355, PARQUE LAGUNA E DOURADOS, DUQUE DE CAXIAS, Rio de Janeiro",-43.2926402,920,ESCOLA MUNICIPAL LAGUNAS E DOURADOS (PROFº. ROMEU MENEZES DOS SANTOS,DUQUE DE CAXIAS,1457,8,0,69,0,1901,175,103
673,602,355,1973,CAMPOS ELÍSEOS,25225592,RUA MARANHAO 90,-22.7032931,"RUA MARANHAO 90, CAMPOS ELÍSEOS, DUQUE DE CAXIAS, Rio de Janeiro",-43.2711676,698,ESCOLA MUNICIPAL MARILANDIA,DUQUE DE CAXIAS,1228,5,0,81,0,1275,262,126
229,660,281,1377,SANTA CRUZ DA SERRA,25240000,"RUA 20, LOTE 12, QUADRA 23",-22.64278,"RUA 20, LOTE 12, QUADRA 23, SANTA CRUZ DA SERRA, DUQUE DE CAXIAS, Rio de Janeiro",-43.28042,488,ESCOLA MUNICIPAL PEDRO PAULO DA SILVA,DUQUE DE CAXIAS,1252,5,0,52,0,889,155,128
685,898,685,2604,GRAMACHO,25035240,AV. RIO BRANCO 20,-22.7521594,"AV. RIO BRANCO 20, GRAMACHO, DUQUE DE CAXIAS, Rio de Janeiro",-43.3054263,1021,ESCOLA MUNICIPAL RUY BARBOSA,DUQUE DE CAXIAS,1040,7,0,97,0,1583,239,194
608,622,391,1966,JARDIM PRIMAVERA,25213340,RUA GERALDO ROCHA S/N,-22.67351,"RUA GERALDO ROCHA S/N, JARDIM PRIMAVERA, DUQUE DE CAXIAS, Rio de Janeiro",-43.27132,736,ESCOLA MUNICIPAL ANTON DWORSAK,DUQUE DE CAXIAS,1759,5,0,71,0,1230,274,126
463,239,251,1077,PARQUE FELICIDADE,25080100,RUA PROFESSOR CARLOS LAET 57,-22.7822881,"RUA PROFESSOR CARLOS LAET 57, PARQUE FELICIDADE, DUQUE DE CAXIAS, Rio de Janeiro",-43.2990392,375,COLÉGIO FLAMA - UNIDADE SANTA CLARA,DUQUE DE CAXIAS,1309,3,0,28,0,702,96,66
993,907,707,2977,JARDIM LEAL,25035610,RUA FRANCISCA LEAL S/N  (ANTIGA RUA PORTUGAL),-22.75811,"RUA FRANCISCA LEAL S/N  (ANTIGA RUA PORTUGAL), JARDIM LEAL, DUQUE DE CAXIAS, Rio de Janeiro",-43.31528,1077,ESCOLA ESTADUAL FIDELIS MEDEIROS,DUQUE DE CAXIAS,1090,8,0,79,0,1900,291,194
837,492,596,2128,CENTRO,25010090,AV. DR. MANOEL TELLES 98,-22.7893449,"AV. DR. MANOEL TELLES 98, CENTRO, DUQUE DE CAXIAS, Rio de Janeiro",-43.3112711,799,COLEGIO CARLOS GOMES,DUQUE DE CAXIAS,1147,6,0,48,0,1329,155,103
931,720,613,2626,BANANAL,25035030,AV. FRANCISCO FALEIRO DE FREITAS LIMA 194,-22.76621,"AV. FRANCISCO FALEIRO DE FREITAS LIMA 194, BANANAL, DUQUE DE CAXIAS, Rio de Janeiro",-43.30984,975,ESCOLA ESTADUAL GETULIO VARGAS,DUQUE DE CAXIAS,1015,7,0,91,0,1651,271,194
296,260,251,927,CENTRO,25070020,"RUA ARTHUR GOULART, 124",-22.7834139,"RUA ARTHUR GOULART, 124, CENTRO, DUQUE DE CAXIAS, Rio de Janeiro",-43.3078052,371,SENAI - SERVIÇO NACIONAL DE APRENDIZAGEM INDUSTRIAL,DUQUE DE CAXIAS,1333,3,0,26,0,556,94,66
998,1351,828,3569,JARDIM GRAMACHO,25055120,RUA AVARE 19,-22.7591437,"RUA AVARE 19, JARDIM GRAMACHO, DUQUE DE CAXIAS, Rio de Janeiro",-43.2782466,1220,ESCOLA ESTADUAL LARA VILELA,DUQUE DE CAXIAS,1147,9,0,125,0,2349,267,78
514,638,420,1730,CENTENÁRIO,25080460,RUA DA MINA 960,-22.77263,"RUA DA MINA 960, CENTENÁRIO, DUQUE DE CAXIAS, Rio de Janeiro",-43.3103,578,ESCOLA ESTADUAL SENHOR DO BONFIM,DUQUE DE CAXIAS,1066,5,0,40,0,1152,118,77
263,287,161,786,VILA SÃO LUIS,25065155,"RUA 21 DE ABRIL, 250 (ESQ. COM R. TREZE DE MAIO)",-22.7708255,"RUA 21 DE ABRIL, 250 (ESQ. COM R. TREZE DE MAIO), VILA SÃO LUIS, DUQUE DE CAXIAS, Rio de Janeiro",-43.2948178,236,ESCOLA MUNICIPAL 21 DE ABRIL,DUQUE DE CAXIAS,1414,3,0,18,0,550,57,200
654,1042,536,2574,SARAPUÍ,25050100,"AV. REPUBLICA DO PARAGUAI, 120",-22.6955479,"AV. REPUBLICA DO PARAGUAI, 120, SARAPUÍ, DUQUE DE CAXIAS, Rio de Janeiro",-43.2951333,878,(ESCOLA DO FUTURO) INSTITUTO FEDERAL DE EDUCAÇÃO CIÊNCIA E TECNOLOGIA,DUQUE DE CAXIAS,1341,7,0,68,0,1696,274,78
289,1343,563,2348,CAPIVARI,25245230,AV. MARQUES DE BARBACENA LT 18/19 QD 3,-22.64157,"AV. MARQUES DE BARBACENA LT 18/19 QD 3, CAPIVARI, DUQUE DE CAXIAS, Rio de Janeiro",-43.33765,716,ESCOLA MUNICIPAL PARQUE CAPIVARI,DUQUE DE CAXIAS,1503,7,0,48,0,1632,105,126
854,998,587,2753,PARQUE COMERCIAL,25041700,RUA ANTONIO GONCALVES MARTINS QD 7 LT 18,-22.73802,"RUA ANTONIO GONCALVES MARTINS QD 7 LT 18, PARQUE COMERCIAL, DUQUE DE CAXIAS, Rio de Janeiro",-43.32144,901,ESCOLA MUNICIPAL CORONEL ELISEU,DUQUE DE CAXIAS,1775,8,0,76,0,1852,238,79
363,250,232,948,VILA ITAMARATI,25070180,"RUA CAIBAR SCHUTEL, 837",-22.7795691,"RUA CAIBAR SCHUTEL, 837, VILA ITAMARATI, DUQUE DE CAXIAS, Rio de Janeiro",-43.2995061,335,INSTITUTO PRESBITERIANO - ECO,DUQUE DE CAXIAS,1406,4,0,21,0,613,82,200
18,66,45,136,JARDIM SAO LOURENCO,25243150,ESTRADA SAO LOURENCO 5003,-22.60137,"ESTRADA SAO LOURENCO 5003, JARDIM SAO LOURENCO, DUQUE DE CAXIAS, Rio de Janeiro",-43.34405,52,ESCOLA MUNICIPAL PRESIDENTE VARGAS,DUQUE DE CAXIAS,1171,1,0,1,0,84,6,128
472,419,242,1341,COPACABANA,25060250,RUA TOMAS ANTONIO GONZAGA 1845,-22.76377,"RUA TOMAS ANTONIO GONZAGA 1845, COPACABANA, DUQUE DE CAXIAS, Rio de Janeiro",-43.30278,450,ESCOLA ESTADUAL ZUMBI DOS PALMARES,DUQUE DE CAXIAS,1279,4,0,42,0,891,166,78
592,536,405,1699,CORTE OITO,25030020,RUA VASSOURAS 154,-22.7698294,"RUA VASSOURAS 154, CORTE OITO, DUQUE DE CAXIAS, Rio de Janeiro",-43.308428,571,CENTRO DE FORMAÇÃO EDUCACIONAL JEAN PIAGET,DUQUE DE CAXIAS,1139,5,0,33,0,1128,133,77
908,1071,536,2901,PILAR,25040610,AV. N. S. DO PILAR 300,-22.7031283,"AV. N. S. DO PILAR 300, PILAR, DUQUE DE CAXIAS, Rio de Janeiro",-43.2975371,922,ESCOLA MUNICIPAL NOSSA SENHORA DO PILAR,DUQUE DE CAXIAS,1694,8,0,94,0,1979,292,79
318,384,210,1094,PARADA ANGÉLICA,25272000,"AV. FERNANDO FIGUEIREDO, SN",-22.62034,"AV. FERNANDO FIGUEIREDO, SN, PARADA ANGÉLICA, DUQUE DE CAXIAS, Rio de Janeiro",-43.20199,392,ESCOLA ESTADUAL PARADA ANGÉLICA,DUQUE DE CAXIAS,1406,3,0,64,0,702,118,127
968,898,706,2960,JARDIM OLAVO BILAC,25036270,RUA DEPUTADO ALMEIDA FRANCO S/N,-22.77117,"RUA DEPUTADO ALMEIDA FRANCO S/N, JARDIM OLAVO BILAC, DUQUE DE CAXIAS, Rio de Janeiro",-43.32397,1094,ESCOLA MUNICIPAL DOUTOR RICARDO AUGUSTO DE AZEREDO,DUQUE DE CAXIAS,1244,8,0,92,0,1866,296,194
1045,436,489,2211,COVANCA,25015500,ESTRADA DA COVANCA S/N,-22.91468,"ESTRADA DA COVANCA S/N, COVANCA, DUQUE DE CAXIAS, Rio de Janeiro",-43.3461,730,ESCOLA ESTADUAL OSWALDO CRUZ,DUQUE DE CAXIAS,1392,6,0,49,0,1481,192,103
309,232,279,937,PERIQUITOS,25025340,"RUA IGARAPÉ, 130",-22.7806032,"RUA IGARAPÉ, 130, PERIQUITOS, DUQUE DE CAXIAS, Rio de Janeiro",-43.3258268,396,JARDIM ESCOLA TIA RÉGIA,DUQUE DE CAXIAS,1392,3,0,30,0,541,87,77
654,927,636,2588,GRAMACHO,25035180,"RUA JOAQUIM JOSE SOARES, S/N",-22.75665,"RUA JOAQUIM JOSE SOARES, S/N, GRAMACHO, DUQUE DE CAXIAS, Rio de Janeiro",-43.30534,1007,ESCOLA MUNICIPAL BARAO DO RIO BRANCO,DUQUE DE CAXIAS,1066,7,0,78,0,1581,293,194
526,263,219,1130,PARQUE BEIRA MAR,25085420,"RUA FRANCISCO ALVES, SN",-22.79198,"RUA FRANCISCO ALVES, SN, PARQUE BEIRA MAR, DUQUE DE CAXIAS, Rio de Janeiro",-43.28953,341,CRAS - CENTRO DE REFERÊNCIA DE ASSISTÊNCIA SOCIAL,DUQUE DE CAXIAS,1384,3,0,32,0,789,90,66
485,458,304,1440,JARDIM OLAVO BILAC,25036040,"RUA CASSIPORE, 114",-22.7620596,"RUA CASSIPORE, 114, JARDIM OLAVO BILAC, DUQUE DE CAXIAS, Rio de Janeiro",-43.3158196,497,JARDIM ESCOLA REINO DA CULTURA - PREDIO II,DUQUE DE CAXIAS,1171,4,0,43,0,943,150,194
302,415,356,1271,NOVA CAMPINAS,25266000,"RUA B, QD 12 LT 17 E 23",-22.64677,"RUA B, QD 12 LT 17 E 23, NOVA CAMPINAS, DUQUE DE CAXIAS, Rio de Janeiro",-43.23369,554,ESCOLA MUNICIPAL NOVA CAMPINAS - CAIXA DÁGUA,DUQUE DE CAXIAS,1449,4,0,67,0,717,131,127
341,413,262,1183,DOUTOR LAUREANO,25050520,RUA PORTO SEGURO S/N,-22.76339,"RUA PORTO SEGURO S/N, DOUTOR LAUREANO, DUQUE DE CAXIAS, Rio de Janeiro",-43.29462,429,ESCOLA MUNICIPAL ANA NERI,DUQUE DE CAXIAS,1058,3,0,42,0,754,125,78
482,593,448,1706,CENTENÁRIO,25030040,RUA DR. OTAVIO ASCOLI S/N,-22.77375,"RUA DR. OTAVIO ASCOLI S/N, CENTENÁRIO, DUQUE DE CAXIAS, Rio de Janeiro",-43.31255,631,ESCOLA MUNICIPAL HERMÍNIA CALDAS DA SILVA,DUQUE DE CAXIAS,1104,5,0,53,0,1075,130,77
654,604,403,1859,DOUTOR LAUREANO,25065170,RUA LEANDRO DA MOTA 1150,-22.7681323,"RUA LEANDRO DA MOTA 1150, DOUTOR LAUREANO, DUQUE DE CAXIAS, Rio de Janeiro",-43.2944155,601,COLÉGIO ESTADUAL EVANGELINA PORTO DA MOTTA,DUQUE DE CAXIAS,1074,5,0,63,0,1258,135,78
287,629,308,1393,PARADA MORABI,25260000,"RUA DA LAPA, LOTES 13 E 14",-22.657934,"RUA DA LAPA, LOTES 13 E 14, PARADA MORABI, DUQUE DE CAXIAS, Rio de Janeiro",-43.2330128,477,ESCOLA MUNICIPAL CAPITÃO FUZILEIRO NAVAL EDUARDO GOMES DE OLIVEIRA,DUQUE DE CAXIAS,1392,4,0,52,0,916,117,127
296,807,334,1614,JARDIM ANHANGÁ,25264000,"RUA M, LT 32 QD 59",-22.64816,"RUA M, LT 32 QD 59, JARDIM ANHANGÁ, DUQUE DE CAXIAS, Rio de Janeiro",-43.23765,511,ESCOLA MUNICIPAL JARDIM ANHANGÁ - CEJA,DUQUE DE CAXIAS,1422,4,0,63,0,1103,114,127
239,523,322,1189,JARDIM GRAMACHO,25055260,"RUA RUI BARBOSA, S/N",-22.75377,"RUA RUI BARBOSA, S/N, JARDIM GRAMACHO, DUQUE DE CAXIAS, Rio de Janeiro",-43.28303,427,CIEP 218 - MINISTRO HERMES DE LIMA,DUQUE DE CAXIAS,1333,3,0,32,0,762,73,78
74,31,34,146,PARQUE BEIRA MAR,25000000,"RUA PEREIRA PASSOS, S/N",-22.79476,"RUA PEREIRA PASSOS, S/N, PARQUE BEIRA MAR, DUQUE DE CAXIAS, Rio de Janeiro",-43.28706,41,ESCOLA MUNICIPAL PROFESSOR JOSÉ DE SOUZA HERDY,DUQUE DE CAXIAS,1449,1,0,3,0,105,4,200
280,204,199,775,JARDIM LEAL,25035585,RUA TAGORE LT 15 QD 34,-22.78741,"RUA TAGORE LT 15 QD 34, JARDIM LEAL, DUQUE DE CAXIAS, Rio de Janeiro",-43.31298,291,COL. GASPARI TOPINI,DUQUE DE CAXIAS,1279,3,0,25,0,484,67,194
565,384,408,1509,BEIRA MAR,25085485,RUA FELISBERTO FREIRE S/N,-22.79246,"RUA FELISBERTO FREIRE S/N, BEIRA MAR, DUQUE DE CAXIAS, Rio de Janeiro",-43.29331,560,ESCOLA MUNICIPAL JOAQUIM DA SILVA PEÇANHA,DUQUE DE CAXIAS,1325,4,0,31,0,949,121,66
131,523,132,861,SANTO ANTONIO,25253550,"AV. BEIRA SERRA, 95",-22.60404,"AV. BEIRA SERRA, 95, SANTO ANTONIO, DUQUE DE CAXIAS, Rio de Janeiro",-43.27356,207,ESCOLA MUNICIPAL SANTO AMARO,DUQUE DE CAXIAS,1210,3,0,21,0,654,54,128
741,597,693,2291,SÃO BENTO,25045010,AV. PRES. KENNEDY 9422,-22.7206399,"AV. PRES. KENNEDY 9422, SÃO BENTO, DUQUE DE CAXIAS, Rio de Janeiro",-43.320019,953,FEUDUC,DUQUE DE CAXIAS,1244,7,0,59,0,1338,201,79
316,274,313,1032,JARDIM 25 DE AGOSTO,25071190,RUA MARECHAL DEODORO 1119,-22.6144827,"RUA MARECHAL DEODORO 1119, JARDIM 25 DE AGOSTO, DUQUE DE CAXIAS, Rio de Janeiro",-43.2322516,442,INSS - INSTITUTO NACIONAL DO SEGURO SOCIAL,DUQUE DE CAXIAS,1066,3,0,24,0,590,105,66
